BEIDOU-2 IGSO-1 (C06)   
1 36828U 10036A   25152.46326947 -.00000073  00000+0  00000+0 0  9992
2 36828  54.2730 166.4021 0049509 217.9616 139.9335  1.00281937 54271
BEIDOU-2 G4 (C04)       
1 37210U 10057A   25152.53864222 -.00000116  00000+0  00000+0 0  9990
2 37210   2.7041  70.4680 0004540 190.8767 342.8455  1.00272096 53472
BEIDOU-2 IGSO-2 (C07)   
1 37256U 10068A   25151.29038838 -.00000219  00000+0  00000+0 0  9994
2 37256  48.2390 276.5570 0046096 212.3071 330.2543  1.00295380 52964
BEIDOU-2 IGSO-3 (C08)   
1 37384U 11013A   25152.47780396 -.00000205  00000+0  00000+0 0  9996
2 37384  61.8641  43.7568 0030130 177.9187 308.8562  1.00270418 51846
BEIDOU-2 IGSO-4 (C09)   
1 37763U 11038A   25152.51086127  .00000007  00000+0  00000+0 0  9999
2 37763  54.5754 169.0784 0143613 231.1990 128.5761  1.00281130 50838
BEIDOU-2 IGSO-5 (C10)   
1 37948U 11073A   25151.31801731 -.00000219  00000+0  00000+0 0  9992
2 37948  48.3752 276.2593 0107247 219.6702 321.4513  1.00292049 49306
BEIDOU-2 G5 (C05)       
1 38091U 12008A   25152.52485698  .00000051  00000+0  00000+0 0  9998
2 38091   2.6268  71.2706 0009460 266.9823 159.7712  1.00277295 48552
BEIDOU-2 M3 (C11)       
1 38250U 12018A   25152.48723180 -.00000083  00000+0  00000+0 0  9998
2 38250  56.0802 317.6761 0020585 268.7876  90.9620  1.86233665 89201
BEIDOU-2 M4 (C12)       
1 38251U 12018B   25151.88227145 -.00000082  00000+0  00000+0 0  9991
2 38251  55.9838 316.9412 0011481 271.0444  88.8080  1.86232061 88841
BEIDOU-2 M6 (C14)       
1 38775U 12050B   25152.12947900 -.00000042  00000+0  00000+0 0  9990
2 38775  56.2075  75.5277 0014203 346.5951  13.3612  1.86231041 86212
BEIDOU-2 G6 (C02)       
1 38953U 12059A   25152.45849104 -.00000180  00000+0  00000+0 0  9993
2 38953   3.4553  77.4767 0009893 315.2006 106.5084  1.00275105 46098
BEIDOU-3S IGSO-1S (C31) 
1 40549U 15019A   25151.81009929 -.00000192  00000+0  00000+0 0  9991
2 40549  49.9190 300.0445 0039409 191.3766 144.5118  1.00281693 37240
BEIDOU-3S M2S (C58)     
1 40748U 15037A   25152.08532994 -.00000083  00000+0  00000+0 0  9994
2 40748  55.2056 315.1353 0008259 255.0635 104.8286  1.86229246 67023
BEIDOU-3S M1S (C57)     
1 40749U 15037B   25149.11991690 -.00000081  00000+0  00000+0 0  9995
2 40749  55.2046 315.2285 0003583  26.3927 333.6038  1.86253767 66971
BEIDOU-3S IGSO-2S (C56) 
1 40938U 15053A   25152.63199904 -.00000161  00000+0  00000+0 0  9991
2 40938  49.8109 263.3002 0059311 188.0780 122.5958  1.00270975 35533
BEIDOU-2 IGSO-6 (C13)   
1 41434U 16021A   25152.61038581 -.00000173  00000+0  00000+0 0  9993
2 41434  59.6892  41.8349 0053969 229.7086 292.5307  1.00290212 33665
BEIDOU-2 G7 (C03)       
1 41586U 16037A   25152.58096131 -.00000358  00000+0  00000+0 0  9994
2 41586   1.7286  68.7550 0010037   7.5619 133.6723  1.00276123 32967
BEIDOU-3 M1 (C19)       
1 43001U 17069A   25150.28428417 -.00000042  00000+0  00000+0 0  9995
2 43001  56.3555  75.7299 0011224 316.6923  43.2082  1.86231251 51473
BEIDOU-3 M2 (C20)       
1 43002U 17069B   25152.37005060 -.00000042  00000+0  00000+0 0  9993
2 43002  56.3558  75.6973 0009474 339.7964  20.1603  1.86230867 51509
BEIDOU-3 M7 (C27)       
1 43107U 18003A   25152.11572296 -.00000085  00000+0  00000+0 0  9997
2 43107  54.6642 315.5716 0004806  82.9972 277.0416  1.86232547 50254
BEIDOU-3 M8 (C28)       
1 43108U 18003B   25152.05902158 -.00000084  00000+0  00000+0 0  9994
2 43108  54.6571 315.5573 0002517 260.6371  99.3183  1.86230997 50266
BEIDOU-3 M4 (C22)       
1 43207U 18018A   25151.96334149 -.00000041  00000+0  00000+0 0  9991
2 43207  56.3156  75.7514 0007590   4.7026 355.2980  1.86231263 49640
BEIDOU-3 M3 (C21)       
1 43208U 18018B   25152.02987911 -.00000041  00000+0  00000+0 0  9991
2 43208  56.3151  75.7534 0009228 330.1018  29.8392  1.86231182 49646
BEIDOU-3 M9 (C29)       
1 43245U 18029A   25151.71082486 -.00000082  00000+0  00000+0 0  9997
2 43245  54.5372 313.2579 0000631 132.2485 227.7388  1.86232702 48797
BEIDOU-3 M10 (C30)      
1 43246U 18029B   25151.64319036 -.00000082  00000+0  00000+0 0  9994
2 43246  54.5351 313.2884 0003978  29.8882 330.1163  1.86229143 48776
BEIDOU-2 IGSO-7 (C16)   
1 43539U 18057A   25152.46370387 -.00000077  00000+0  00000+0 0  9991
2 43539  55.1632 166.3540 0089439 236.6146 126.6764  1.00261780 25312
BEIDOU-3 M5 (C23)       
1 43581U 18062A   25151.86847658  .00000020  00000+0  00000+0 0  9994
2 43581  54.0997 195.2683 0005228 279.9942  80.0150  1.86228780 46534
BEIDOU-3 M6 (C24)       
1 43582U 18062B   25152.26957208  .00000021  00000+0  00000+0 0  9994
2 43582  54.0993 195.2438 0004373   5.9963 354.0761  1.86229600 46544
BEIDOU-3 M12 (C26)      
1 43602U 18067A   25152.20524119  .00000023  00000+0  00000+0 0  9999
2 43602  54.1927 193.9595 0007145  25.0113 335.0895  1.86227892 46025
BEIDOU-3 M11 (C25)      
1 43603U 18067B   25152.33924508  .00000023  00000+0  00000+0 0  9990
2 43603  54.1899 193.9193 0003989   8.0802 351.9921  1.86227371 46058
BEIDOU-3 M13 (C32)      
1 43622U 18072A   25152.29792128 -.00000043  00000+0  00000+0 0  9996
2 43622  56.2879  75.2620 0007749 318.5400  41.3959  1.86231389 45568
BEIDOU-3 M14 (C33)      
1 43623U 18072B   25152.16340078 -.00000043  00000+0  00000+0 0  9996
2 43623  56.2897  75.2601 0006238 345.8323  14.1447  1.86231394 45552
BEIDOU-3 M16 (C35)      
1 43647U 18078A   25151.78642969 -.00000083  00000+0  00000+0 0  9993
2 43647  54.4338 313.3257 0007317  32.1941 327.8327  1.86232333 45052
BEIDOU-3 M15 (C34)      
1 43648U 18078B   25151.91567519 -.00000083  00000+0  00000+0 0  9996
2 43648  54.4295 313.3229 0004405  47.5076 312.5120  1.86232343 45073
BEIDOU-3 G1 (C59)       
1 43683U 18085A   25152.60433221 -.00000281  00000+0  00000+0 0  9992
2 43683   2.6323 108.9855 0004236 349.9351 148.9583  1.00268699 24248
BEIDOU-3 M17 (C36)      
1 43706U 18093A   25152.60795020  .00000022  00000+0  00000+0 0  9997
2 43706  54.1829 195.2073 0009922 284.6236  75.3330  1.86228492 44451
BEIDOU-3 M18 (C37)      
1 43707U 18093B   25152.47048598  .00000022  00000+0  00000+0 0  9994
2 43707  54.1837 195.2037 0007768 311.6300  48.3703  1.86229971 44446
BEIDOU-3 IGSO-1 (C38)   
1 44204U 19023A   25152.64521956 -.00000234  00000+0  00000+0 0  9990
2 44204  58.1549  41.5794 0020387 224.1403 332.4564  1.00250583  3390
BEIDOU-2 G8 (C01)       
1 44231U 19027A   25152.60728422 -.00000251  00000+0  00000+0 0  9996
2 44231   1.6541  75.0756 0004313 255.8292 282.6293  1.00269839 22269
BEIDOU-3 IGSO-2 (C39)   
1 44337U 19035A   25151.87260693 -.00000084  00000+0  00000+0 0  9995
2 44337  55.2078 162.2095 0035791 210.7642 310.7531  1.00276233 21841
BEIDOU-3 M24 (C46)      
1 44542U 19061A   25152.54140198  .00000022  00000+0  00000+0 0  9995
2 44542  54.4108 195.5654 0007779 351.4373   8.6165  1.86229152 38704
BEIDOU-3 M23 (C45)      
1 44543U 19061B   25152.60739545  .00000022  00000+0  00000+0 0  9993
2 44543  54.4091 195.5315 0005248 330.1120 346.9185  1.86229380 38706
BEIDOU-3 IGSO-3 (C40)   
1 44709U 19073A   25151.77459622 -.00000210  00000+0  00000+0 0  9992
2 44709  55.4556 285.0125 0044835 183.0181 176.9018  1.00250108 20635
BEIDOU-3 M22 (C44)      
1 44793U 19078A   25151.84678651 -.00000083  00000+0  00000+0 0  9991
2 44793  54.2810 313.2128 0006366  40.6851 319.3447  1.86232200 37548
BEIDOU-3 M21 (C43)      
1 44794U 19078B   25152.51686664 -.00000085  00000+0  00000+0 0  9992
2 44794  54.2535 313.1584 0004335  39.4176 320.5975  1.86227789 37566
BEIDOU-3 M19 (C41)      
1 44864U 19090A   25152.42232874 -.00000043  00000+0  00000+0 0  9998
2 44864  56.2226  75.4093 0018406 292.0743 198.3763  1.86231657 37146
BEIDOU-3 M20 (C42)      
1 44865U 19090B   25152.31917720 -.00000043  00000+0  00000+0 0  9997
2 44865  56.2243  75.4467 0016359 305.4196 205.5285  1.86231554 37121
BEIDOU-3 G2 (C60)       
1 45344U 20017A   25152.54920909 -.00000146  00000+0  00000+0 0  9993
2 45344   2.8475  40.1534 0002092  12.0342 115.8239  1.00272220 19443
BEIDOU-3 G3 (C61)       
1 45807U 20040A   25152.58774157 -.00000358  00000+0  00000+0 0  9994
2 45807   1.5272  63.7281 0001893 317.5092 191.1721  1.00267794 18252
BEIDOU-3 G4 (C62)       
1 56564U 23066A   25152.53864222 -.00000116  00000+0  00000+0 0  9997
2 56564   1.2599 292.2560 0006011 181.6074 130.3576  1.00272050  7576
BEIDOU-3 M28 (C50)      
1 58654U 23207A   25152.05973850 -.00000044  00000+0  00000+0 0  9991
2 58654  55.4104  75.1957 0003675 325.3888  34.5813  1.86229926  9740
BEIDOU-3 M26 (C48)      
1 58655U 23207B   25151.32214278 -.00000043  00000+0  00000+0 0  9992
2 58655  55.4118  75.2067 0003842 301.1523  58.8024  1.86231629  9716
BEIDOU-3 M25 (C47)      
1 61186U 24168B   25152.22579622 -.00000084  00000+0  00000+0 0  9994
2 61186  54.8089 315.4490 0003201 297.9500  65.6706  1.86230128  4692
BEIDOU-3 M27 (C49)      
1 61187U 24168C   25152.51331946 -.00000085  00000+0  00000+0 0  9993
2 61187  54.8041 315.4234 0001812  37.4036 293.8703  1.86230229  2168
